ONEWEB-0451             
1 51643U 22012X   23365.88341536  .00000061  00000+0  12393-3 0  9990
2 51643  87.9197 184.4655 0001321  97.7104 262.4177 13.17651504 95365
ONEWEB-0452             
1 51644U 22012Y   24001.48932387  .00000055  00000+0  10846-3 0  9999
2 51644  87.9205 184.3756 0001049  89.7712 270.3539 13.17650782 96751
ONEWEB-0455             
1 51645U 22012Z   24001.51158381  .00000417  00000+0  17803-3 0  9990
2 51645  87.5356 165.0894 0017509 164.0388 196.1358 14.22682415 99749
ONEWEB-0456             
1 51646U 22012AA  23365.61519755 -.00002360  00000+0 -67972-2 0  9992
2 51646  87.8893 214.7302 0002461  98.7755 261.3651 13.10378142 91666
ONEWEB-0457             
1 51647U 22012AB  23365.59246682  .00000264  00000+0  71975-3 0  9994
2 51647  87.8898 214.7423 0001239  66.7175 293.4082 13.10370823 91661
ONEWEB-0458             
1 51648U 22012AC  23365.61357258 -.00000550  00000+0 -16114-2 0  9993
2 51648  87.8903 214.7519 0001265  94.2877 265.8395 13.10372910 91624
ONEWEB-0461             
1 51649U 22012AD  23365.90400730  .00000000  00000+0 -34354-4 0  9997
2 51649  87.9200 184.4669 0001516  86.7942 273.3363 13.17650719 95595
ONEWEB-0463             
1 51650U 22012AE  24001.49408591  .00000047  00000+0  86990-4 0  9997
2 51650  87.9204 184.3898 0001452  87.9976 272.1322 13.17649550 96755
ONEWEB-0464             
1 51651U 22012AF  23365.61033367 -.00000439  00000+0 -12935-2 0  9992
2 51651  87.8902 214.7414 0001705 101.6586 258.4732 13.10367778 91641
ONEWEB-0468             
1 51652U 22012AG  23365.61683274 -.00000604  00000+0 -17663-2 0  9998
2 51652  87.8902 214.7328 0001406  89.5720 270.5568 13.10367525 91628
ONEWEB-0473             
1 51653U 22012AH  23365.67857854 -.00000161  00000+0 -49797-3 0  9994
2 51653  87.8899 214.7247 0001372  93.6559 266.4726 13.10366531 91639
ONEWEB-0474             
1 51654U 22012AJ  24001.51040271  .00000380  00000+0  10522-2 0  9997
2 51654  87.8889 214.5721 0001402  99.6298 260.4988 13.10370487 93028
ONEWEB-0475             
1 51655U 22012AK  24001.04953549  .00000014  00000+0  42014-5 0  9995
2 51655  87.9209 184.4565 0001368 110.3098 249.8181 13.17646193 96708
ONEWEB-0490             
1 54113U 22138A   23365.85721402  .00000005  00000+0 -19047-4 0  9998
2 54113  87.9203 123.7907 0001710 109.2139 250.9179 13.19726306 58349
ONEWEB-0492             
1 54114U 22138B   23365.88248255  .00000073  00000+0  14956-3 0  9999
2 54114  87.9200 123.7800 0001896 115.9327 244.2001 13.19725273 58350
ONEWEB-0495             
1 54115U 22138C   24001.39108447  .00000071  00000+0  14605-3 0  9991
2 54115  87.9200 123.6908 0001741 121.1673 238.9631 13.19724536 59273
ONEWEB-0497             
1 54116U 22138D   24001.40372099  .00000058  00000+0  11211-3 0  9995
2 54116  87.9203 123.6832 0001726 111.0631 249.0686 13.19727184 59262
ONEWEB-0499             
1 54117U 22138E   23365.85562703  .00000067  00000+0  13517-3 0  9991
2 54117  87.9199 123.7860 0001115 118.9539 241.1705 13.19724247 58333
ONEWEB-0500             
1 54118U 22138F   23365.85880319  .00000453  00000+0  10980-2 0  9997
2 54118  87.9202 123.7861 0001667 105.3735 254.7582 13.19723590 58344
ONEWEB-0501             
1 54119U 22138G   23365.88880004  .00000040  00000+0  67164-4 0  9992
2 54119  87.9204 123.7813 0001794 127.0876 233.0421 13.19724813 58321
ONEWEB-0502             
1 54120U 22138H   24001.32948235  .00000108  00000+0  23764-3 0  9994
2 54120  87.9202 123.6851 0001595 119.9573 240.1718 13.19727109 59279
ONEWEB-0503             
1 54121U 22138J   24001.39424444  .00000034  00000+0  52054-4 0  9996
2 54121  87.9201 123.6800 0001243  96.5039 263.6236 13.19725181 59273
ONEWEB-0504             
1 54122U 22138K   23365.85089413  .00000115  00000+0  25416-3 0  9994
2 54122  87.9202 123.7896 0001576  97.2984 262.8328 13.19724727 58342
ONEWEB-0505             
1 54123U 22138L   24001.37845044  .00000068  00000+0  13703-3 0  9993
2 54123  87.9202 123.6821 0001748 133.4241 226.7037 13.19726030 59267
ONEWEB-0506             
1 54124U 22138M   23365.82247722  .00000111  00000+0  24604-3 0  9996
2 54124  87.9201 123.7894 0001653 117.3649 242.7652 13.19728096 58316
ONEWEB-0507             
1 54125U 22138N   23365.84298788 -.00000270  00000+0 -70752-3 0  9990
2 54125  87.9210 123.7923 0001741 116.0669 244.0643 13.19725777 59236
ONEWEB-0508             
1 54126U 22138P   23365.83982899  .00000069  00000+0  14110-3 0  9993
2 54126  87.9199 123.7915 0001806 126.8735 233.2564 13.19728579 58345
ONEWEB-0509             
1 54127U 22138Q   23365.89038498  .00000105  00000+0  22978-3 0  9999
2 54127  87.9201 123.7795 0001608 114.3075 245.8226 13.19726408 59192
ONEWEB-0510             
1 54128U 22138R   23365.80745854  .00000162  00000+0  36610-3 0  9993
2 54128  87.9237  93.2546 0002199 109.9068 250.2303 13.20773671 60694
ONEWEB-0511             
1 54129U 22138S   24001.41793628  .00000022  00000+0  22123-4 0  9991
2 54129  87.9201 123.6760 0001151 110.3953 249.7303 13.19724994 59297
ONEWEB-0512             
1 54130U 22138T   24001.33422687  .00000095  00000+0  20503-3 0  9997
2 54130  87.9210 123.6958 0001637 125.9910 234.1374 13.19727324 59254
ONEWEB-0513             
1 54131U 22138U   23365.85009375 -.00000041  00000+0 -13554-3 0  9993
2 54131  87.9199 123.7907 0001392 133.9291 226.1956 13.19723745 58209
ONEWEB-0514             
1 54132U 22138V   23365.89511275 -.00000032  00000+0 -11253-3 0  9999
2 54132  87.9201 123.7836 0001486 103.0281 257.1017 13.19725335 58340
ONEWEB-0515             
1 54133U 22138W   24001.32513072  .00000022  00000+0  22479-4 0  9993
2 54133  87.9198  93.1393 0002663  86.6492 273.4946 13.20774891 61655
ONEWEB-0516             
1 54134U 22138X   24001.40056444  .00000076  00000+0  15862-3 0  9994
2 54134  87.9210 123.6829 0001718 109.1829 250.9490 13.19725310 59289
ONEWEB-0517             
1 54135U 22138Y   23365.84930915  .00000024  00000+0  27083-4 0  9991
2 54135  87.9203 123.7890 0001461 118.0023 242.1258 13.19724645 58342
ONEWEB-0518             
1 54136U 22138Z   24001.39898646  .00000073  00000+0  14882-3 0  9990
2 54136  87.9209 123.6830 0001423 106.9666 253.1622 13.19726847 59286
ONEWEB-0519             
1 54137U 22138AA  23365.89353288  .00000133  00000+0  29961-3 0  9997
2 54137  87.9201 123.7773 0001359 124.3288 235.7973 13.19727798 58356
ONEWEB-0520             
1 54138U 22138AB  24001.38319136  .00003210  00000+0  79858-2 0  9992
2 54138  87.9202 123.6826 0001817 128.6567 231.4728 13.19710641 59274
ONEWEB-0521             
1 54139U 22138AC  24001.41635992  .00000094  00000+0  20344-3 0  9992
2 54139  87.9200 123.6712 0001381 100.9162 259.2126 13.19725095 59254
ONEWEB-0522             
1 54140U 22138AD  24001.39581863  .00000089  00000+0  19118-3 0  9999
2 54140  87.9200 123.6778 0001686 108.0084 252.1233 13.19729039 59262
ONEWEB-0523             
1 54141U 22138AE  24001.31252655  .00000060  00000+0  11621-3 0  9996
2 54141  87.9200  93.1687 0002108  75.6583 284.4784 13.20773157 61653
ONEWEB-0524             
1 54142U 22138AF  23365.77115556  .00000054  00000+0  10115-3 0  9997
2 54142  87.9201  93.2808 0002891  97.2750 262.8712 13.20774146 60712
ONEWEB-0525             
1 54143U 22138AG  24001.41477430  .00000032  00000+0  47461-4 0  9990
2 54143  87.9202 123.6781 0001660 120.1714 239.9583 13.19727133 59284
ONEWEB-0526             
1 54144U 22138AH  23365.84143222  .00000019  00000+0  15426-4 0  9990
2 54144  87.9201 123.7902 0001715 109.6395 250.4923 13.19722334 58315
ONEWEB-0529             
1 54145U 22138AJ  23365.84457197  .00000060  00000+0  11861-3 0  9994
2 54145  87.9208 123.7922 0001801 119.3559 240.7754 13.19724469 58338
ONEWEB-0531             
1 54146U 22138AK  23365.75696607 -.00000495  00000+0 -12489-2 0  9996
2 54146  87.9201  93.2734 0002438  86.4363 273.7049 13.20772000 60712
ONEWEB-0535             
1 54147U 22138AL  24001.40841536  .00004907  00000+0  12210-1 0  9991
2 54147  87.9203 123.6764 0002236 111.7240 248.4131 13.19764642 59291
ONEWEB-0536             
1 54148U 22138AM  23365.74434996  .00000087  00000+0  18106-3 0  9996
2 54148  87.9198  93.3261 0002014  70.0262 290.1088 13.20777868 60704
GSLV R/B                
1 54149U 22138AN  24001.16515859  .00002008  00000+0  20637-3 0  9996
2 54149  87.3798  72.9866 0025341 154.4984 205.7501 14.89604638 64767
ONEWEB-0527             
1 54642U 22166A   23365.73068009  .00000049  00000+0  88322-4 0  9999
2 54642  87.9214  62.8519 0001969  99.8054 260.3302 13.21826064 52843
ONEWEB-0528             
1 54643U 22166B   23365.66130324  .00000060  00000+0  11383-3 0  9997
2 54643  87.9237  62.8437 0001856 105.9273 254.2065 13.21827105 52840
ONEWEB-0539             
1 54644U 22166C   24001.15173356  .00000063  00000+0  12046-3 0  9992
2 54644  87.9239  62.7461 0001620 104.0332 256.0983 13.21828241 53352
ONEWEB-0540             
1 54645U 22166D   23365.69204333  .00000044  00000+0  76066-4 0  9996
2 54645  87.9241  62.8647 0001518 105.6383 254.4919 13.21826992 52836
ONEWEB-0542             
1 54646U 22166E   24001.23689605  .00000060  00000+0  11369-3 0  9996
2 54646  87.9237  62.7291 0001319  90.9750 269.1535 13.21824732 53376
ONEWEB-0545             
1 54647U 22166F   24001.20378487  .00000095  00000+0  19736-3 0  9991
2 54647  87.9227  62.7737 0001307 109.8155 250.3120 13.21826723 53348
ONEWEB-0580             
1 54648U 22166G   23365.72279505  .00000024  00000+0  26763-4 0  9993
2 54648  87.9234  62.8254 0001271  87.5128 272.6151 13.21825944 52854
ONEWEB-0582             
1 54649U 22166H   24001.14385531  .00000052  00000+0  93369-4 0  9992
2 54649  87.9240  62.7835 0001664 111.7828 248.3483 13.21826200 53359
ONEWEB-0583             
1 54650U 22166J   23365.70071533 -.00000044  00000+0 -13779-3 0  9991
2 54650  87.9230  62.8759 0002212 105.3730 254.7649 13.21826215 52830
